EOSSAT-1                
1 55053U 23001AW  26068.73619225  .00007695  00000+0  24844-3 0  9992
2 55053  97.3357 130.2294 0011263 110.3168 249.9285 15.32339828176689
STARLINK-34999          
1 65222U 25176AA  26068.47396430  .00015522  00000+0  53501-3 0  9997
2 65222  53.1599 153.9922 0001307 105.6394 254.4751 15.30205110 33081
